[{"OBJECT_NAME":"STARLINK-5167","OBJECT_ID":"2022-136H","EPOCH":"2026-03-09T02:12:56.368512","MEAN_MOTION":15.08826452,"ECCENTRICITY":0.000138,"INCLINATION":53.2187,"RA_OF_ASC_NODE":346.8102,"ARG_OF_PERICENTER":80.856,"MEAN_ANOMALY":279.2588,"EPHEMERIS_TYPE":0,"CLASSIFICATION_TYPE":"U","NORAD_CAT_ID":54058,"ELEMENT_SET_NO":999,"REV_AT_EPOCH":18675,"BSTAR":-8.6490862e-5,"MEAN_MOTION_DOT":-1.664e-5,"MEAN_MOTION_DDOT":0},{"OBJECT_NAME":"FENGYUN 1C DEB","OBJECT_ID":"1999-025FK","EPOCH":"2026-03-09T17:46:38.104320","MEAN_MOTION":14.84141288,"ECCENTRICITY":0.01116123,"INCLINATION":98.9208,"RA_OF_ASC_NODE":354.5977,"ARG_OF_PERICENTER":225.7574,"MEAN_ANOMALY":200.963,"EPHEMERIS_TYPE":0,"CLASSIFICATION_TYPE":"U","NORAD_CAT_ID":29865,"ELEMENT_SET_NO":999,"REV_AT_EPOCH":2048,"BSTAR":0.00075888297,"MEAN_MOTION_DOT":7.012e-5,"MEAN_MOTION_DDOT":0}]
